{"type": "FeatureCollection", "features": [ {"type": "Feature", "properties": {"norad_id": 41774, "name": "SKYSAT-C3", "group": "resource", "lat": 40.17730028584709, "lon": 15.188604172293632, "alt_km": 429.58987589262415, "timestamp": "2025-12-13T08:49:15.350958+00:00", "meta": {"OBJECT_NAME": "SKYSAT-C3", "OBJECT_ID": "2016-058E", "EPOCH": "2025-12-13T00:52:15.414528", "MEAN_MOTION": 15.44408588, "ECCENTRICITY": 0.00016362, "INCLINATION": 96.9306, "RA_OF_ASC_NODE": 20.7681, "ARG_OF_PERICENTER": 108.2836, "MEAN_ANOMALY": 251.8592, "EPHEMERIS_TYPE": 0, "CLASSIFICATION_TYPE": "U", "NORAD_CAT_ID": 41774, "ELEMENT_SET_NO": 999, "REV_AT_EPOCH": 51730, "BSTAR": 0.00053748722, "MEAN_MOTION_DOT": 0.00024801, "MEAN_MOTION_DDOT": 0}, "tle": {"line1": "1 41774U 16058E   25347.03628952  .00024801  00000+0  53749-3 0  9994", "line2": "2 41774  96.9306  20.7681 0001636 108.2836 251.8592 15.44408588517301"}}, "geometry": {"type": "Point", "coordinates": [15.188604172293632, 40.17730028584709]}}, {"type": "Feature", "properties": {"norad_id": 41785, "name": "ALSAT 1B", "group": "resource", "lat": 80.2231125363282, "lon": -128.34447667005017, "alt_km": 639.523219256952, "timestamp": "2025-12-13T08:49:15.350969+00:00", "meta": {"OBJECT_NAME": "ALSAT 1B", "OBJECT_ID": "2016-059C", "EPOCH": "2025-12-13T00:13:50.231424", "MEAN_MOTION": 14.72076414, "ECCENTRICITY": 0.00107466, "INCLINATION": 97.7819, "RA_OF_ASC_NODE": 358.7878, "ARG_OF_PERICENTER": 102.3595, "MEAN_ANOMALY": 257.8816, "EPHEMERIS_TYPE": 0, "CLASSIFICATION_TYPE": "U", "NORAD_CAT_ID": 41785, "ELEMENT_SET_NO": 999, "REV_AT_EPOCH": 49318, "BSTAR": 0.0001572249, "MEAN_MOTION_DOT": 9.42e-06, "MEAN_MOTION_DDOT": 0}, "tle": {"line1": "1 41785U 16059C   25347.00960916  .00000942  00000+0  15722-3 0  9992", "line2": "2 41785  97.7819 358.7878 0010746 102.3595 257.8816 14.72076414493185"}}, "geometry": {"type": "Point", "coordinates": [-128.34447667005017, 80.2231125363282]}}, {"type": "Feature", "properties": {"norad_id": 41787, "name": "PATHFINDER 1", "group": "resource", "lat": 15.604235356580137, "lon": 172.30989791298188, "alt_km": 668.440623007753, "timestamp": "2025-12-13T08:49:15.350980+00:00", "meta": {"OBJECT_NAME": "PATHFINDER 1", "OBJECT_ID": "2016-059E", "EPOCH": "2025-12-12T23:53:43.089504", "MEAN_MOTION": 14.67321766, "ECCENTRICITY": 0.00300287, "INCLINATION": 97.8139, "RA_OF_ASC_NODE": 349.7573, "ARG_OF_PERICENTER": 80.4484, "MEAN_ANOMALY": 280.0112, "EPHEMERIS_TYPE": 0, "CLASSIFICATION_TYPE": "U", "NORAD_CAT_ID": 41787, "ELEMENT_SET_NO": 999, "REV_AT_EPOCH": 49240, "BSTAR": 0.00023072264, "MEAN_MOTION_DOT": 1.264e-05, "MEAN_MOTION_DDOT": 0}, "tle": {"line1": "1 41787U 16059E   25346.99563761  .00001264  00000+0  23072-3 0  9993", "line2": "2 41787  97.8139 349.7573 0030028  80.4484 280.0112 14.67321766492401"}}, "geometry": {"type": "Point", "coordinates": [172.30989791298188, 15.604235356580137]}}, {"type": "Feature", "properties": {"norad_id": 41790, "name": "SCATSAT 1", "group": "resource", "lat": -3.2384132156408483, "lon": -136.41865947145385, "alt_km": 614.5315347821816, "timestamp": "2025-12-13T08:49:15.350990+00:00", "meta": {"OBJECT_NAME": "SCATSAT 1", "OBJECT_ID": "2016-059H", "EPOCH": "2025-12-12T23:52:52.769280", "MEAN_MOTION": 14.78938687, "ECCENTRICITY": 0.00562961, "INCLINATION": 98.1466, "RA_OF_ASC_NODE": 43.6686, "ARG_OF_PERICENTER": 127.187, "MEAN_ANOMALY": 233.4499, "EPHEMERIS_TYPE": 0, "CLASSIFICATION_TYPE": "U", "NORAD_CAT_ID": 41790, "ELEMENT_SET_NO": 999, "REV_AT_EPOCH": 7406, "BSTAR": 0.00036191356, "MEAN_MOTION_DOT": 2.685e-05, "MEAN_MOTION_DDOT": 0}, "tle": {"line1": "1 41790U 16059H   25346.99505520  .00002685  00000+0  36191-3 0  9990", "line2": "2 41790  98.1466  43.6686 0056296 127.1870 233.4499 14.78938687 74066"}}, "geometry": {"type": "Point", "coordinates": [-136.41865947145385, -3.2384132156408483]}}, {"type": "Feature", "properties": {"norad_id": 41875, "name": "GOKTURK 1A", "group": "resource", "lat": -50.1253296114844, "lon": 49.856169945233646, "alt_km": 691.8678395449924, "timestamp": "2025-12-13T08:49:15.351000+00:00", "meta": {"OBJECT_NAME": "GOKTURK 1A", "OBJECT_ID": "2016-073A", "EPOCH": "2025-12-12T23:33:39.113280", "MEAN_MOTION": 14.62781187, "ECCENTRICITY": 0.00012071, "INCLINATION": 98.1422, "RA_OF_ASC_NODE": 239.3437, "ARG_OF_PERICENTER": 78.6707, "MEAN_ANOMALY": 281.4631, "EPHEMERIS_TYPE": 0, "CLASSIFICATION_TYPE": "U", "NORAD_CAT_ID": 41875, "ELEMENT_SET_NO": 999, "REV_AT_EPOCH": 48160, "BSTAR": 0.00021723108, "MEAN_MOTION_DOT": 1.061e-05, "MEAN_MOTION_DDOT": 0}, "tle": {"line1": "1 41875U 16073A   25346.98170270  .00001061  00000+0  21723-3 0  9991", "line2": "2 41875  98.1422 239.3437 0001207  78.6707 281.4631 14.62781187481608"}}, "geometry": {"type": "Point", "coordinates": [49.856169945233646, -50.1253296114844]}}, {"type": "Feature", "properties": {"norad_id": 41877, "name": "RESOURCESAT-2A", "group": "resource", "lat": -6.73888903572301, "lon": -123.82658674443095, "alt_km": 823.3692760113536, "timestamp": "2025-12-13T08:49:15.351011+00:00", "meta": {"OBJECT_NAME": "RESOURCESAT-2A", "OBJECT_ID": "2016-074A", "EPOCH": "2025-12-13T01:11:18.844224", "MEAN_MOTION": 14.21599202, "ECCENTRICITY": 0.00011378, "INCLINATION": 98.7751, "RA_OF_ASC_NODE": 56.9031, "ARG_OF_PERICENTER": 253.8442, "MEAN_ANOMALY": 106.261, "EPHEMERIS_TYPE": 0, "CLASSIFICATION_TYPE": "U", "NORAD_CAT_ID": 41877, "ELEMENT_SET_NO": 999, "REV_AT_EPOCH": 46785, "BSTAR": 0.00012575239, "MEAN_MOTION_DOT": 2.31e-06, "MEAN_MOTION_DDOT": 0}, "tle": {"line1": "1 41877U 16074A   25347.04952366  .00000231  00000+0  12575-3 0  9999", "line2": "2 41877  98.7751  56.9031 0001137 253.8442 106.2610 14.21599202467851"}}, "geometry": {"type": "Point", "coordinates": [-123.82658674443095, -6.73888903572301]}}, {"type": "Feature", "properties": {"norad_id": 41948, "name": "CARTOSAT-2D", "group": "resource", "lat": 52.629981605810386, "lon": 35.00377048000107, "alt_km": 504.09732548756983, "timestamp": "2025-12-13T08:49:15.351022+00:00", "meta": {"OBJECT_NAME": "CARTOSAT-2D", "OBJECT_ID": "2017-008A", "EPOCH": "2025-12-12T23:06:10.050912", "MEAN_MOTION": 15.19261797, "ECCENTRICITY": 0.0004702, "INCLINATION": 97.4392, "RA_OF_ASC_NODE": 44.456, "ARG_OF_PERICENTER": 161.2166, "MEAN_ANOMALY": 198.9243, "EPHEMERIS_TYPE": 0, "CLASSIFICATION_TYPE": "U", "NORAD_CAT_ID": 41948, "ELEMENT_SET_NO": 999, "REV_AT_EPOCH": 48930, "BSTAR": 0.0003246196, "MEAN_MOTION_DOT": 6.779e-05, "MEAN_MOTION_DDOT": 0}, "tle": {"line1": "1 41948U 17008A   25346.96261633  .00006779  00000+0  32462-3 0  9996", "line2": "2 41948  97.4392  44.4560 0004702 161.2166 198.9243 15.19261797489309"}}, "geometry": {"type": "Point", "coordinates": [35.00377048000107, 52.629981605810386]}}, {"type": "Feature", "properties": {"norad_id": 42063, "name": "SENTINEL-2B", "group": "resource", "lat": 3.7460383737819276, "lon": -119.63008560207592, "alt_km": 791.3540992809985, "timestamp": "2025-12-13T08:49:15.351033+00:00", "meta": {"OBJECT_NAME": "SENTINEL-2B", "OBJECT_ID": "2017-013A", "EPOCH": "2025-12-13T01:17:14.489952", "MEAN_MOTION": 14.30816017, "ECCENTRICITY": 0.00011595, "INCLINATION": 98.5711, "RA_OF_ASC_NODE": 59.4947, "ARG_OF_PERICENTER": 92.6477, "MEAN_ANOMALY": 267.4839, "EPHEMERIS_TYPE": 0, "CLASSIFICATION_TYPE": "U", "NORAD_CAT_ID": 42063, "ELEMENT_SET_NO": 999, "REV_AT_EPOCH": 45802, "BSTAR": 0.00010682337, "MEAN_MOTION_DOT": 2.36e-06, "MEAN_MOTION_DDOT": 0}, "tle": {"line1": "1 42063U 17013A   25347.05363993  .00000236  00000+0  10682-3 0  9996", "line2": "2 42063  98.5711  59.4947 0001159  92.6477 267.4839 14.30816017458026"}}, "geometry": {"type": "Point", "coordinates": [-119.63008560207592, 3.7460383737819276]}}, {"type": "Feature", "properties": {"norad_id": 42767, "name": "CARTOSAT-2E", "group": "resource", "lat": -35.647781930658205, "lon": 50.33487487086281, "alt_km": 514.5903955701651, "timestamp": "2025-12-13T08:49:15.351044+00:00", "meta": {"OBJECT_NAME": "CARTOSAT-2E", "OBJECT_ID": "2017-036C", "EPOCH": "2025-12-13T01:04:30.688896", "MEAN_MOTION": 15.19202349, "ECCENTRICITY": 0.0002038, "INCLINATION": 97.4557, "RA_OF_ASC_NODE": 44.6271, "ARG_OF_PERICENTER": 235.5881, "MEAN_ANOMALY": 124.5161, "EPHEMERIS_TYPE": 0, "CLASSIFICATION_TYPE": "U", "NORAD_CAT_ID": 42767, "ELEMENT_SET_NO": 999, "REV_AT_EPOCH": 46988, "BSTAR": 0.00036896429, "MEAN_MOTION_DOT": 7.7e-05, "MEAN_MOTION_DDOT": 0}, "tle": {"line1": "1 42767U 17036C   25347.04479964  .00007700  00000+0  36896-3 0  9995", "line2": "2 42767  97.4557  44.6271 0002038 235.5881 124.5161 15.19202349469885"}}, "geometry": {"type": "Point", "coordinates": [50.33487487086281, -35.647781930658205]}}, {"type": "Feature", "properties": {"norad_id": 42920, "name": "FORMOSAT-5", "group": "resource", "lat": -43.143577804477474, "lon": -126.13655222646506, "alt_km": 726.5890200483173, "timestamp": "2025-12-13T08:49:15.351055+00:00", "meta": {"OBJECT_NAME": "FORMOSAT-5", "OBJECT_ID": "2017-049A", "EPOCH": "2025-12-12T21:51:45.097632", "MEAN_MOTION": 14.51005732, "ECCENTRICITY": 0.00098819, "INCLINATION": 98.2453, "RA_OF_ASC_NODE": 61.2266, "ARG_OF_PERICENTER": 294.9268, "MEAN_ANOMALY": 65.09, "EPHEMERIS_TYPE": 0, "CLASSIFICATION_TYPE": "U", "NORAD_CAT_ID": 42920, "ELEMENT_SET_NO": 999, "REV_AT_EPOCH": 43966, "BSTAR": 0.00011262142, "MEAN_MOTION_DOT": 4.02e-06, "MEAN_MOTION_DDOT": 0}, "tle": {"line1": "1 42920U 17049A   25346.91093863  .00000402  00000+0  11262-3 0  9997", "line2": "2 42920  98.2453  61.2266 0009881 294.9268  65.0900 14.51005732439665"}}, "geometry": {"type": "Point", "coordinates": [-126.13655222646506, -43.143577804477474]}}]}